[{"OBJECT_NAME":"STARLINK-30998","OBJECT_ID":"2023-191F","EPOCH":"2026-03-09T10:56:11.755104","MEAN_MOTION":15.26777394,"ECCENTRICITY":0.00010836,"INCLINATION":43.0003,"RA_OF_ASC_NODE":104.9154,"ARG_OF_PERICENTER":269.465,"MEAN_ANOMALY":90.6078,"EPHEMERIS_TYPE":0,"CLASSIFICATION_TYPE":"U","NORAD_CAT_ID":58513,"ELEMENT_SET_NO":999,"REV_AT_EPOCH":12546,"BSTAR":0.00031234295,"MEAN_MOTION_DOT":8.137e-5,"MEAN_MOTION_DDOT":0},{"OBJECT_NAME":"CZ-6A DEB","OBJECT_ID":"2022-151NB","EPOCH":"2026-03-09T18:26:17.609568","MEAN_MOTION":15.22372787,"ECCENTRICITY":0.00267955,"INCLINATION":98.6489,"RA_OF_ASC_NODE":154.0342,"ARG_OF_PERICENTER":180.4296,"MEAN_ANOMALY":179.6918,"EPHEMERIS_TYPE":0,"CLASSIFICATION_TYPE":"U","NORAD_CAT_ID":54601,"ELEMENT_SET_NO":999,"REV_AT_EPOCH":17694,"BSTAR":0.011449911,"MEAN_MOTION_DOT":0.00276508,"MEAN_MOTION_DDOT":0}]
